[{"OBJECT_NAME":"OCO 2","OBJECT_ID":"2014-035A","EPOCH":"2026-04-04T06:24:16.004160","MEAN_MOTION":14.57127116,"ECCENTRICITY":0.00015844,"INCLINATION":98.1966,"RA_OF_ASC_NODE":36.7093,"ARG_OF_PERICENTER":90.5748,"MEAN_ANOMALY":269.5632,"EPHEMERIS_TYPE":0,"CLASSIFICATION_TYPE":"U","NORAD_CAT_ID":40059,"ELEMENT_SET_NO":999,"REV_AT_EPOCH":62528,"BSTAR":0.00020912602,"MEAN_MOTION_DOT":8.97e-6,"MEAN_MOTION_DDOT":0},{"OBJECT_NAME":"BRITE-PL2 (HEWELIUSZ)","OBJECT_ID":"2014-049B","EPOCH":"2026-04-04T06:05:07.656576","MEAN_MOTION":14.94321467,"ECCENTRICITY":0.00138359,"INCLINATION":97.9006,"RA_OF_ASC_NODE":205.7361,"ARG_OF_PERICENTER":1.3674,"MEAN_ANOMALY":358.7582,"EPHEMERIS_TYPE":0,"CLASSIFICATION_TYPE":"U","NORAD_CAT_ID":40119,"ELEMENT_SET_NO":999,"REV_AT_EPOCH":63040,"BSTAR":0.00044523983,"MEAN_MOTION_DOT":4.735e-5,"MEAN_MOTION_DDOT":0},{"OBJECT_NAME":"MMS 1","OBJECT_ID":"2015-011A","EPOCH":"2026-04-04T06:00:02.000160","MEAN_MOTION":0.2833862,"ECCENTRICITY":0.83864416,"INCLINATION":71.1346,"RA_OF_ASC_NODE":349.8029,"ARG_OF_PERICENTER":165.8179,"MEAN_ANOMALY":316.5416,"EPHEMERIS_TYPE":0,"CLASSIFICATION_TYPE":"U","NORAD_CAT_ID":40482,"ELEMENT_SET_NO":999,"REV_AT_EPOCH":130,"BSTAR":0,"MEAN_MOTION_DOT":-1.255e-5,"MEAN_MOTION_DDOT":0},{"OBJECT_NAME":"MMS 2","OBJECT_ID":"2015-011B","EPOCH":"2026-04-04T06:00:02.000160","MEAN_MOTION":0.28338619,"ECCENTRICITY":0.83871894,"INCLINATION":71.1348,"RA_OF_ASC_NODE":349.8051,"ARG_OF_PERICENTER":165.8239,"MEAN_ANOMALY":316.5264,"EPHEMERIS_TYPE":0,"CLASSIFICATION_TYPE":"U","NORAD_CAT_ID":40483,"ELEMENT_SET_NO":999,"REV_AT_EPOCH":130,"BSTAR":0,"MEAN_MOTION_DOT":-1.255e-5,"MEAN_MOTION_DDOT":0},{"OBJECT_NAME":"MMS 3","OBJECT_ID":"2015-011C","EPOCH":"2026-04-04T06:00:02.000160","MEAN_MOTION":0.28338575,"ECCENTRICITY":0.83864438,"INCLINATION":71.1374,"RA_OF_ASC_NODE":349.8097,"ARG_OF_PERICENTER":165.8182,"MEAN_ANOMALY":316.5312,"EPHEMERIS_TYPE":0,"CLASSIFICATION_TYPE":"U","NORAD_CAT_ID":40484,"ELEMENT_SET_NO":999,"REV_AT_EPOCH":130,"BSTAR":0,"MEAN_MOTION_DOT":-1.255e-5,"MEAN_MOTION_DDOT":0},{"OBJECT_NAME":"MMS 4","OBJECT_ID":"2015-011D","EPOCH":"2026-04-04T06:00:02.000160","MEAN_MOTION":0.2833857,"ECCENTRICITY":0.83859728,"INCLINATION":71.1349,"RA_OF_ASC_NODE":349.805,"ARG_OF_PERICENTER":165.8256,"MEAN_ANOMALY":316.518,"EPHEMERIS_TYPE":0,"CLASSIFICATION_TYPE":"U","NORAD_CAT_ID":40485,"ELEMENT_SET_NO":999,"REV_AT_EPOCH":130,"BSTAR":0,"MEAN_MOTION_DOT":-1.255e-5,"MEAN_MOTION_DDOT":0},{"OBJECT_NAME":"ASTROSAT","OBJECT_ID":"2015-052A","EPOCH":"2026-04-03T08:20:00.551904","MEAN_MOTION":14.8237002,"ECCENTRICITY":0.00076075,"INCLINATION":5.998,"RA_OF_ASC_NODE":334.0049,"ARG_OF_PERICENTER":42.4365,"MEAN_ANOMALY":317.6351,"EPHEMERIS_TYPE":0,"CLASSIFICATION_TYPE":"U","NORAD_CAT_ID":40930,"ELEMENT_SET_NO":999,"REV_AT_EPOCH":56870,"BSTAR":0.00025572621,"MEAN_MOTION_DOT":2.768e-5,"MEAN_MOTION_DDOT":0},{"OBJECT_NAME":"DAMPE","OBJECT_ID":"2015-078A","EPOCH":"2026-04-04T05:34:48.698976","MEAN_MOTION":15.3059681,"ECCENTRICITY":0.00116259,"INCLINATION":97.4578,"RA_OF_ASC_NODE":99.3415,"ARG_OF_PERICENTER":347.4899,"MEAN_ANOMALY":12.6051,"EPHEMERIS_TYPE":0,"CLASSIFICATION_TYPE":"U","NORAD_CAT_ID":41173,"ELEMENT_SET_NO":999,"REV_AT_EPOCH":57323,"BSTAR":0.00010525976,"MEAN_MOTION_DOT":3.04e-5,"MEAN_MOTION_DDOT":0},{"OBJECT_NAME":"PISAT","OBJECT_ID":"2016-059B","EPOCH":"2026-04-03T23:06:35.723808","MEAN_MOTION":14.68843739,"ECCENTRICITY":0.00305795,"INCLINATION":97.8192,"RA_OF_ASC_NODE":97.6114,"ARG_OF_PERICENTER":83.0677,"MEAN_ANOMALY":277.4006,"EPHEMERIS_TYPE":0,"CLASSIFICATION_TYPE":"U","NORAD_CAT_ID":41784,"ELEMENT_SET_NO":999,"REV_AT_EPOCH":50884,"BSTAR":0.00033902994,"MEAN_MOTION_DOT":1.947e-5,"MEAN_MOTION_DDOT":0},{"OBJECT_NAME":"HXMT (HUIYAN)","OBJECT_ID":"2017-034A","EPOCH":"2026-04-04T05:57:39.108384","MEAN_MOTION":15.17813161,"ECCENTRICITY":0.00309844,"INCLINATION":43.0139,"RA_OF_ASC_NODE":234.5401,"ARG_OF_PERICENTER":34.3812,"MEAN_ANOMALY":325.9034,"EPHEMERIS_TYPE":0,"CLASSIFICATION_TYPE":"U","NORAD_CAT_ID":42758,"ELEMENT_SET_NO":999,"REV_AT_EPOCH":48642,"BSTAR":0.00057336923,"MEAN_MOTION_DOT":0.00011732,"MEAN_MOTION_DDOT":0},{"OBJECT_NAME":"FLYING LAPTOP","OBJECT_ID":"2017-042G","EPOCH":"2026-04-04T07:36:38.361888","MEAN_MOTION":15.00697073,"ECCENTRICITY":0.00197822,"INCLINATION":97.436,"RA_OF_ASC_NODE":252.8659,"ARG_OF_PERICENTER":15.9149,"MEAN_ANOMALY":344.2693,"EPHEMERIS_TYPE":0,"CLASSIFICATION_TYPE":"U","NORAD_CAT_ID":42831,"ELEMENT_SET_NO":999,"REV_AT_EPOCH":47537,"BSTAR":0.00028863265,"MEAN_MOTION_DOT":3.613e-5,"MEAN_MOTION_DDOT":0},{"OBJECT_NAME":"ZHANGHENG 1-01 (CSES-1)","OBJECT_ID":"2018-015C","EPOCH":"2026-04-04T06:01:10.798752","MEAN_MOTION":15.20946705,"ECCENTRICITY":0.00186763,"INCLINATION":97.6799,"RA_OF_ASC_NODE":258.4633,"ARG_OF_PERICENTER":149.2414,"MEAN_ANOMALY":210.9919,"EPHEMERIS_TYPE":0,"CLASSIFICATION_TYPE":"U","NORAD_CAT_ID":43194,"ELEMENT_SET_NO":999,"REV_AT_EPOCH":45340,"BSTAR":0.0007449693,"MEAN_MOTION_DOT":0.00016521,"MEAN_MOTION_DDOT":0},{"OBJECT_NAME":"SALSAT","OBJECT_ID":"2020-068K","EPOCH":"2026-04-03T22:39:05.415552","MEAN_MOTION":15.28700775,"ECCENTRICITY":0.00094367,"INCLINATION":97.8863,"RA_OF_ASC_NODE":92.5537,"ARG_OF_PERICENTER":192.637,"MEAN_ANOMALY":167.4633,"EPHEMERIS_TYPE":0,"CLASSIFICATION_TYPE":"U","NORAD_CAT_ID":46495,"ELEMENT_SET_NO":999,"REV_AT_EPOCH":30401,"BSTAR":0.00056346593,"MEAN_MOTION_DOT":0.00015678,"MEAN_MOTION_DDOT":0},{"OBJECT_NAME":"IXPE","OBJECT_ID":"2021-121A","EPOCH":"2026-04-04T06:00:02.000160","MEAN_MOTION":15.09567417,"ECCENTRICITY":0.00075503,"INCLINATION":0.2281,"RA_OF_ASC_NODE":156.4045,"ARG_OF_PERICENTER":41.3593,"MEAN_ANOMALY":100.6015,"EPHEMERIS_TYPE":0,"CLASSIFICATION_TYPE":"U","NORAD_CAT_ID":49954,"ELEMENT_SET_NO":999,"REV_AT_EPOCH":558,"BSTAR":0.00098247073,"MEAN_MOTION_DOT":0.00017215,"MEAN_MOTION_DDOT":0}]
